FLOCK 4G-3              
1 62639U 25009AG  26203.18842041  .00010446  00000+0  36250-3 0  9996
2 62639  97.4014 285.0516 0003840 151.6106 208.5344 15.29965570 84259
FLOCK 4G-27             
1 62641U 25009AJ  26202.48883529  .00008315  00000+0  28991-3 0  9992
2 62641  97.3921 283.6948 0003106 154.6976 205.4417 15.29882473 84149
FLOCK 4G-29             
1 62642U 25009AK  26203.19343826  .00006872  00000+0  23972-3 0  9993
2 62642  97.4010 285.0161 0003972 148.1228 212.0254 15.29932158 84253
FLOCK 4G-22             
1 62645U 25009AN  26203.14685938  .00011205  00000+0  38984-3 0  9999
2 62645  97.3996 285.0016 0003494 145.9355 214.2110 15.29866528 84265
FLOCK 4G-25             
1 62646U 25009AP  26203.18492449  .00011594  00000+0  40035-3 0  9998
2 62646  97.4001 285.1215 0002989 146.9413 213.2015 15.30104328 84279
FLOCK 4G-23             
1 62647U 25009AQ  26203.20357205  .00048962  00000+0  14289-2 0  9992
2 62647  97.3913 284.9096 0003535 157.4119 202.7280 15.35171091 84298
FLOCK 4G-34             
1 62650U 25009AT  26203.19039855  .00010944  00000+0  38079-3 0  9995
2 62650  97.3953 284.6064 0002908 146.5385 213.6039 15.29870844 84260
FLOCK 4G-21             
1 62651U 25009AU  26203.16018397  .00042512  00000+0  13210-2 0  9996
2 62651  97.3981 285.6160 0003655 172.0806 188.0495 15.33217127 84313
FLOCK 4G-31             
1 62652U 25009AV  26203.15577197  .00011035  00000+0  38625-3 0  9998
2 62652  97.3958 284.5421 0002483 146.7175 213.4222 15.29675440 84256
FLOCK 4G-4              
1 62659U 25009BC  26203.18140891  .00041664  00000+0  13243-2 0  9994
2 62659  97.3929 284.4055 0005186 171.1259 189.0075 15.32490789141861
FLOCK 4G-6              
1 62660U 25009BD  26203.14315998  .00010408  00000+0  36010-3 0  9994
2 62660  97.3928 284.3832 0003603 178.0977 182.0278 15.30065279141845
FLOCK 4G-2              
1 62661U 25009BE  26203.20052861  .00010982  00000+0  37559-3 0  9995
2 62661  97.3996 285.0924 0004423 177.3998 182.7267 15.30425536141882
FLOCK 4G-5              
1 62663U 25009BG  26203.19282175  .00009376  00000+0  31557-3 0  9995
2 62663  97.4017 285.4924 0004074 160.6119 199.5278 15.30992295 84295
FLOCK 4G-1              
1 62666U 25009BK  26203.18605422  .00012466  00000+0  42765-3 0  9998
2 62666  97.4009 285.0567 0004694 174.9030 185.2259 15.30291314 84268
FLOCK 4G-14             
1 62667U 25009BL  26203.15382018  .00010621  00000+0  37002-3 0  9998
2 62667  97.4013 284.8168 0004872 170.9995 189.1334 15.29832485 84245
FLOCK 4G-10             
1 62670U 25009BP  26203.16426971  .00011248  00000+0  39044-3 0  9994
2 62670  97.3911 284.1162 0004437 186.1865 173.9321 15.29935936141880
FLOCK 4G-36             
1 62675U 25009BU  26203.15890991  .00011697  00000+0  40616-3 0  9990
2 62675  97.4000 284.7429 0005028 175.9185 184.2097 15.29911702 84241
FLOCK 4G-15             
1 62678U 25009BX  26203.16540074  .00018985  00000+0  65436-3 0  9992
2 62678  97.4006 284.8938 0005151 173.7617 186.3689 15.30041293141895
FLOCK 4G-30             
1 62679U 25009BY  26203.15509044  .00046684  00000+0  13995-2 0  9993
2 62679  97.3895 284.4391 0004850 176.1647 183.9634 15.34329192141901
FLOCK 4G-18             
1 62680U 25009BZ  26203.17745725  .00043617  00000+0  13826-2 0  9991
2 62680  97.3995 284.8485 0006714 188.1448 171.9686 15.32557736141892
FLOCK 4G-17             
1 62681U 25009CA  26203.19099383  .00012476  00000+0  42941-3 0  9996
2 62681  97.3911 284.3831 0004753 188.0935 172.0230 15.30185208141900
FLOCK 4G-33             
1 62685U 25009CE  26203.14046614  .00005489  00000+0  21718-3 0  9999
2 62685  97.3937 282.6173 0005297 188.3016 171.8135 15.25853272 84138
PELICAN-3               
1 65315U 25188A   26203.17735743  .00008847  00000+0  21400-3 0  9990
2 65315  97.1975 278.8136 0002170 112.7428 247.4049 15.41357187 50704
PELICAN-4               
1 65316U 25188B   26203.20091951  .00008280  00000+0  20682-3 0  9993
2 65316  97.1981 278.9788 0001415  72.3045 287.8356 15.40405398 50709
PELICAN-5               
1 66667U 25276B   26202.63736565  .00017924  00000+0  56168-3 0  9997
2 66667  97.4117 277.6194 0002644  57.6520 302.4977 15.33133291 35796
PELICAN-6               
1 66703U 25276AP  26202.64266504  .00004274  00000+0  14220-3 0  9997
2 66703  97.3687 277.5838 0002871  56.7613 303.3904 15.31697522 35809
FLOCK 4H-1              
1 66704U 25276AQ  26203.18588566  .00005707  00000+0  26113-3 0  9999
2 66704  97.4160 276.3237 0002647 155.5332 204.6030 15.20908254 35756
FLOCK 4H-2              
1 66705U 25276AR  26203.15833220  .00007105  00000+0  32170-3 0  9991
2 66705  97.4157 276.3473 0002107 146.4870 213.6500 15.21184762 35755
FLOCK 4H-3              
1 66706U 25276AS  26203.15239025  .00006635  00000+0  30842-3 0  9996
2 66706  97.4225 276.2632 0003084 214.7696 145.3338 15.20301623 35732
FLOCK 4H-4              
1 66707U 25276AT  26203.18940730  .00006358  00000+0  29743-3 0  9992
2 66707  97.4209 276.1631 0003629 220.7265 139.3699 15.20095862 35735
FLOCK 4H-5              
1 66708U 25276AU  26203.17791341  .00005761  00000+0  26321-3 0  9990
2 66708  97.4160 276.3374 0001735 134.5821 225.5556 15.20959023 35754
FLOCK 4H-6              
1 66709U 25276AV  26203.15944827  .00006864  00000+0  31563-3 0  9997
2 66709  97.4211 276.3643 0003204 179.7607 180.3631 15.20663837 35743
FLOCK 4H-7              
1 66710U 25276AW  26203.14225863  .00006778  00000+0  31379-3 0  9999
2 66710  97.4168 276.0985 0000999 226.3472 133.7681 15.20439743 35732
FLOCK 4H-8              
1 66711U 25276AX  26203.19846574  .00006624  00000+0  30572-3 0  9997
2 66711  97.4206 276.3084 0002280 228.5324 131.5716 15.20549039 35740
FLOCK 4H-9              
1 66712U 25276AY  26203.14508972  .00007326  00000+0  33480-3 0  9991
2 66712  97.4198 276.3528 0003129 186.6101 173.5093 15.20852587 35743
FLOCK 4H-10             
1 66713U 25276AZ  26203.17289627  .00006267  00000+0  29216-3 0  9993
2 66713  97.4175 276.0809 0003433 220.7023 139.3956 15.20222520 35734
FLOCK 4H-11             
1 66714U 25276BA  26203.18336016  .00015467  00000+0  65109-3 0  9993
2 66714  97.4179 276.7185 0002076 208.0958 152.0167 15.23457395 35774
FLOCK 4H-12             
1 66715U 25276BB  26203.19780954  .00007271  00000+0  33207-3 0  9997
2 66715  97.4170 276.3387 0002585 162.8211 197.3113 15.20881023 36062
FLOCK 4H-13             
1 66716U 25276BC  26203.16795888  .00005785  00000+0  26418-3 0  9991
2 66716  97.4207 276.4867 0002325 134.6085 225.5341 15.20973722 35756
FLOCK 4H-14             
1 66717U 25276BD  26203.19212926  .00006185  00000+0  27850-3 0  9998
2 66717  97.4188 276.5602 0002249 134.5358 225.6062 15.21426227 35014
FLOCK 4H-15             
1 66718U 25276BE  26203.14231582  .00006753  00000+0  31714-3 0  9998
2 66718  97.4202 276.0554 0002983 236.6289 123.4661 15.19942151 35729
FLOCK 4H-16             
1 66719U 25276BF  26203.24545050  .00006514  00000+0  30366-3 0  9995
2 66719  97.4221 276.2722 0003293 220.6396 139.4594 15.20211056 35746
FLOCK 4H-18             
1 66721U 25276BH  26203.18605985  .00006500  00000+0  30352-3 0  9995
2 66721  97.4162 276.0211 0002352 250.0641 110.0341 15.20153683 35734
FLOCK 4H-19             
1 66722U 25276BJ  26203.24565007  .00005545  00000+0  25067-3 0  9998
2 66722  97.4161 276.5549 0002878 136.0675 224.0790 15.21336599 35066
FLOCK 4H-20             
1 66723U 25276BK  26203.24703397  .00006735  00000+0  30227-3 0  9991
2 66723  97.4199 276.6676 0003510 152.0171 208.1254 15.21506296 35020
FLOCK 4H-21             
1 66724U 25276BL  26203.14874922  .00006910  00000+0  31379-3 0  9998
2 66724  97.4162 276.3868 0003328 151.8017 208.3399 15.21089073 35003
FLOCK 4H-22             
1 66725U 25276BM  26203.19560741  .00006967  00000+0  32104-3 0  9994
2 66725  97.4155 276.1377 0001214 236.6747 123.4372 15.20588113 35740
FLOCK 4H-23             
1 66726U 25276BN  26203.18549857  .00006418  00000+0  29992-3 0  9991
2 66726  97.4225 276.2138 0003564 211.9561 148.1458 15.20131275 35736
FLOCK 4H-24             
1 66727U 25276BP  26203.16977903  .00006705  00000+0  31220-3 0  9993
2 66727  97.4218 276.2281 0002731 229.2519 130.8480 15.20241750 35731
FLOCK 4H-25             
1 66728U 25276BQ  26203.16760245  .00006203  00000+0  28275-3 0  9992
2 66728  97.4176 276.3972 0002136 120.7620 239.3826 15.21004730 35038
FLOCK 4H-26             
1 66729U 25276BR  26202.48031844  .00005884  00000+0  27665-3 0  9999
2 66729  97.4173 275.3251 0003580 234.3282 125.7620 15.19953555 35625
FLOCK 4H-27             
1 66730U 25276BS  26203.13323286  .00006327  00000+0  28981-3 0  9993
2 66730  97.4151 276.2125 0001864 125.1428 234.9983 15.20827964 35749
FLOCK 4H-29             
1 66732U 25276BU  26203.18336801  .00006139  00000+0  28728-3 0  9997
2 66732  97.4153 275.9981 0001892 238.7187 121.3863 15.20103069 35731
FLOCK 4H-30             
1 66733U 25276BV  26203.17470172  .00006850  00000+0  31897-3 0  9998
2 66733  97.4213 276.2039 0003076 229.2891 130.8077 15.20229753 35731
FLOCK 4H-31             
1 66734U 25276BW  26203.19672027  .00006435  00000+0  30185-3 0  9992
2 66734  97.4152 275.9773 0002365 237.0185 123.0822 15.20000233 35730
FLOCK 4H-32             
1 66735U 25276BX  26203.18407640  .00005999  00000+0  28067-3 0  9999
2 66735  97.4210 276.1675 0003438 227.8819 132.2124 15.20118854 35739
FLOCK 4H-33             
1 66736U 25276BY  26203.13707818  .00005963  00000+0  27003-3 0  9995
2 66736  97.4204 276.5258 0003280 145.7624 214.3823 15.21245004 35750
FLOCK 4H-34             
1 66737U 25276BZ  26203.19142047  .00006442  00000+0  29440-3 0  9999
2 66737  97.4221 276.5001 0003244 153.0599 207.0805 15.20901568 35009
FLOCK 4H-35             
1 66738U 25276CA  26203.16664306  .00005953  00000+0  27142-3 0  9997
2 66738  97.4180 276.4112 0003081 137.4617 222.6858 15.21011581 35045
FLOCK 4H-36             
1 66739U 25276CB  26203.14045867  .00007136  00000+0  32690-3 0  9990
2 66739  97.4229 276.4425 0003076 164.3077 195.8254 15.20782062 35746
